STARLINK-2273           
1 47993U 21024S   24141.83207635  .00019752  00000+0  13411-2 0  9992
2 47993  53.0558   9.8476 0003087 142.0828 218.0379 15.06400624175446
STARLINK-2290           
1 47994U 21024T   24141.83622970  .00009391  00000+0  64886-3 0  9997
2 47994  53.0561  24.8334 0000917  80.3891 279.7202 15.06380033175231
STARLINK-2309           
1 47995U 21024U   24141.57962919  .00002742  00000+0  20289-3 0  9991
2 47995  53.0559 351.3072 0001616  85.6575 274.4599 15.06400603175686
STARLINK-2260           
1 47996U 21024V   24141.62155441  .00002112  00000+0  16070-3 0  9996
2 47996  53.0528 276.0964 0001883 128.6827 231.4331 15.06381602177260
STARLINK-2266           
1 47997U 21024W   24142.08317572  .00018344  00000+0  12468-2 0  9993
2 47997  53.0551  23.7275 0001302  94.2213 265.8925 15.06410858175277
STARLINK-2296           
1 47998U 21024X   24141.89198805  .00021481  00000+0  14576-2 0  9996
2 47998  53.0552 359.8315 0001423  83.9152 276.1999 15.06373937175584
STARLINK-2218           
1 47999U 21024Y   24142.25001157  .00268198  00000+0  29112-2 0  9991
2 47999  53.0523 311.4946 0000341 336.4214 200.1994 15.62107699176293
STARLINK-2270           
1 48000U 21024Z   24142.03804356  .00003821  00000+0  27534-3 0  9990
2 48000  53.0547 314.1301 0001287  90.5832 269.5305 15.06393150176249
STARLINK-2265           
1 48002U 21024AB  24141.53492866  .00008930  00000+0  61791-3 0  9994
2 48002  53.0533 336.5088 0002189  82.4125 277.7113 15.06383710176343
STARLINK-2263           
1 48003U 21024AC  24142.11955049  .00022927  00000+0  15515-2 0  9991
2 48003  53.0549  48.5658 0001288 105.4188 254.6943 15.06437463174920
STARLINK-2254           
1 48005U 21024AE  24141.88259628  .00159872  00000+0  29535-2 0  9993
2 48005  53.0546   5.4068 0000379 108.7550 251.3498 15.48024450175503
STARLINK-2271           
1 48008U 21024AH  24141.78643290  .00002307  00000+0  17378-3 0  9990
2 48008  53.0558 315.0606 0001689 110.2770 249.8400 15.06385149176206
STARLINK-2153           
1 48009U 21024AJ  24141.84497988 -.00000702  00000+0 -28216-4 0  9992
2 48009  53.0553  29.7920 0001592  96.4337 263.6834 15.06383910175160
STARLINK-2226           
1 48010U 21024AK  24141.72518048 -.00002079  00000+0 -12077-3 0  9998
2 48010  53.0534  50.3280 0001360 132.1794 227.9310 15.06378018174858
