[
  {
    "OBJECT_NAME": "STARLINK-2273",
    "OBJECT_ID": "2021-024S",
    "EPOCH": "2024-05-20T19:58:11.396640",
    "MEAN_MOTION": 15.06400624,
    "ECCENTRICITY": 0.0003087,
    "INCLINATION": 53.0558,
    "RA_OF_ASC_NODE": 9.8476,
    "ARG_OF_PERICENTER": 142.0828,
    "MEAN_ANOMALY": 218.0379,
    "EPHEMERIS_TYPE": 0,
    "CLASSIFICATION_TYPE": "U",
    "NORAD_CAT_ID": 47993,
    "ELEMENT_SET_NO": 999,
    "REV_AT_EPOCH": 17544,
    "BSTAR": 0.0013411,
    "MEAN_MOTION_DOT": 0.00019752,
    "MEAN_MOTION_DDOT": 0
  },
  {
    "OBJECT_NAME": "STARLINK-2290",
    "OBJECT_ID": "2021-024T",
    "EPOCH": "2024-05-20T20:04:10.246080",
    "MEAN_MOTION": 15.06380033,
    "ECCENTRICITY": 9.17e-5,
    "INCLINATION": 53.0561,
    "RA_OF_ASC_NODE": 24.8334,
    "ARG_OF_PERICENTER": 80.3891,
    "MEAN_ANOMALY": 279.7202,
    "EPHEMERIS_TYPE": 0,
    "CLASSIFICATION_TYPE": "U",
    "NORAD_CAT_ID": 47994,
    "ELEMENT_SET_NO": 999,
    "REV_AT_EPOCH": 17523,
    "BSTAR": 0.00064886,
    "MEAN_MOTION_DOT": 9.391e-5,
    "MEAN_MOTION_DDOT": 0
  },
  {
    "OBJECT_NAME": "STARLINK-2309",
    "OBJECT_ID": "2021-024U",
    "EPOCH": "2024-05-20T13:54:39.962016",
    "MEAN_MOTION": 15.06400603,
    "ECCENTRICITY": 0.0001616,
    "INCLINATION": 53.0559,
    "RA_OF_ASC_NODE": 351.3072,
    "ARG_OF_PERICENTER": 85.6575,
    "MEAN_ANOMALY": 274.4599,
    "EPHEMERIS_TYPE": 0,
    "CLASSIFICATION_TYPE": "U",
    "NORAD_CAT_ID": 47995,
    "ELEMENT_SET_NO": 999,
    "REV_AT_EPOCH": 17568,
    "BSTAR": 0.00020289,
    "MEAN_MOTION_DOT": 2.742e-5,
    "MEAN_MOTION_DDOT": 0
  },
  {
    "OBJECT_NAME": "STARLINK-2260",
    "OBJECT_ID": "2021-024V",
    "EPOCH": "2024-05-20T14:55:02.301024",
    "MEAN_MOTION": 15.06381602,
    "ECCENTRICITY": 0.0001883,
    "INCLINATION": 53.0528,
    "RA_OF_ASC_NODE": 276.0964,
    "ARG_OF_PERICENTER": 128.6827,
    "MEAN_ANOMALY": 231.4331,
    "EPHEMERIS_TYPE": 0,
    "CLASSIFICATION_TYPE": "U",
    "NORAD_CAT_ID": 47996,
    "ELEMENT_SET_NO": 999,
    "REV_AT_EPOCH": 17726,
    "BSTAR": 0.0001607,
    "MEAN_MOTION_DOT": 2.112e-5,
    "MEAN_MOTION_DDOT": 0
  },
  {
    "OBJECT_NAME": "STARLINK-2266",
    "OBJECT_ID": "2021-024W",
    "EPOCH": "2024-05-21T01:59:46.382208",
    "MEAN_MOTION": 15.06410858,
    "ECCENTRICITY": 0.0001302,
    "INCLINATION": 53.0551,
    "RA_OF_ASC_NODE": 23.7275,
    "ARG_OF_PERICENTER": 94.2213,
    "MEAN_ANOMALY": 265.8925,
    "EPHEMERIS_TYPE": 0,
    "CLASSIFICATION_TYPE": "U",
    "NORAD_CAT_ID": 47997,
    "ELEMENT_SET_NO": 999,
    "REV_AT_EPOCH": 17527,
    "BSTAR": 0.0012468,
    "MEAN_MOTION_DOT": 0.00018344,
    "MEAN_MOTION_DDOT": 0
  },
  {
    "OBJECT_NAME": "STARLINK-2296",
    "OBJECT_ID": "2021-024X",
    "EPOCH": "2024-05-20T21:24:27.767520",
    "MEAN_MOTION": 15.06373937,
    "ECCENTRICITY": 0.0001423,
    "INCLINATION": 53.0552,
    "RA_OF_ASC_NODE": 359.8315,
    "ARG_OF_PERICENTER": 83.9152,
    "MEAN_ANOMALY": 276.1999,
    "EPHEMERIS_TYPE": 0,
    "CLASSIFICATION_TYPE": "U",
    "NORAD_CAT_ID": 47998,
    "ELEMENT_SET_NO": 999,
    "REV_AT_EPOCH": 17558,
    "BSTAR": 0.0014576,
    "MEAN_MOTION_DOT": 0.00021481,
    "MEAN_MOTION_DDOT": 0
  },
  {
    "OBJECT_NAME": "STARLINK-2218",
    "OBJECT_ID": "2021-024Y",
    "EPOCH": "2024-05-21T06:00:00.999648",
    "MEAN_MOTION": 15.62107699,
    "ECCENTRICITY": 3.41e-5,
    "INCLINATION": 53.0523,
    "RA_OF_ASC_NODE": 311.4946,
    "ARG_OF_PERICENTER": 336.4214,
    "MEAN_ANOMALY": 200.1994,
    "EPHEMERIS_TYPE": 0,
    "CLASSIFICATION_TYPE": "U",
    "NORAD_CAT_ID": 47999,
    "ELEMENT_SET_NO": 999,
    "REV_AT_EPOCH": 17629,
    "BSTAR": 0.0029112,
    "MEAN_MOTION_DOT": 0.00268198,
    "MEAN_MOTION_DDOT": 0
  },
  {
    "OBJECT_NAME": "STARLINK-2270",
    "OBJECT_ID": "2021-024Z",
    "EPOCH": "2024-05-21T00:54:46.963584",
    "MEAN_MOTION": 15.0639315,
    "ECCENTRICITY": 0.0001287,
    "INCLINATION": 53.0547,
    "RA_OF_ASC_NODE": 314.1301,
    "ARG_OF_PERICENTER": 90.5832,
    "MEAN_ANOMALY": 269.5305,
    "EPHEMERIS_TYPE": 0,
    "CLASSIFICATION_TYPE": "U",
    "NORAD_CAT_ID": 48000,
    "ELEMENT_SET_NO": 999,
    "REV_AT_EPOCH": 17624,
    "BSTAR": 0.00027534,
    "MEAN_MOTION_DOT": 3.821e-5,
    "MEAN_MOTION_DDOT": 0
  },
  {
    "OBJECT_NAME": "STARLINK-2265",
    "OBJECT_ID": "2021-024AB",
    "EPOCH": "2024-05-20T12:50:17.836224",
    "MEAN_MOTION": 15.0638371,
    "ECCENTRICITY": 0.0002189,
    "INCLINATION": 53.0533,
    "RA_OF_ASC_NODE": 336.5088,
    "ARG_OF_PERICENTER": 82.4125,
    "MEAN_ANOMALY": 277.7113,
    "EPHEMERIS_TYPE": 0,
    "CLASSIFICATION_TYPE": "U",
    "NORAD_CAT_ID": 48002,
    "ELEMENT_SET_NO": 999,
    "REV_AT_EPOCH": 17634,
    "BSTAR": 0.00061791,
    "MEAN_MOTION_DOT": 8.93e-5,
    "MEAN_MOTION_DDOT": 0
  },
  {
    "OBJECT_NAME": "STARLINK-2263",
    "OBJECT_ID": "2021-024AC",
    "EPOCH": "2024-05-21T02:52:09.162336",
    "MEAN_MOTION": 15.06437463,
    "ECCENTRICITY": 0.0001288,
    "INCLINATION": 53.0549,
    "RA_OF_ASC_NODE": 48.5658,
    "ARG_OF_PERICENTER": 105.4188,
    "MEAN_ANOMALY": 254.6943,
    "EPHEMERIS_TYPE": 0,
    "CLASSIFICATION_TYPE": "U",
    "NORAD_CAT_ID": 48003,
    "ELEMENT_SET_NO": 999,
    "REV_AT_EPOCH": 17492,
    "BSTAR": 0.0015515,
    "MEAN_MOTION_DOT": 0.00022927,
    "MEAN_MOTION_DDOT": 0
  },
  {
    "OBJECT_NAME": "STARLINK-2254",
    "OBJECT_ID": "2021-024AE",
    "EPOCH": "2024-05-20T21:10:56.318592",
    "MEAN_MOTION": 15.4802445,
    "ECCENTRICITY": 3.79e-5,
    "INCLINATION": 53.0546,
    "RA_OF_ASC_NODE": 5.4068,
    "ARG_OF_PERICENTER": 108.755,
    "MEAN_ANOMALY": 251.3498,
    "EPHEMERIS_TYPE": 0,
    "CLASSIFICATION_TYPE": "U",
    "NORAD_CAT_ID": 48005,
    "ELEMENT_SET_NO": 999,
    "REV_AT_EPOCH": 17550,
    "BSTAR": 0.0029535,
    "MEAN_MOTION_DOT": 0.00159872,
    "MEAN_MOTION_DDOT": 0
  },
  {
    "OBJECT_NAME": "STARLINK-2271",
    "OBJECT_ID": "2021-024AH",
    "EPOCH": "2024-05-20T18:52:27.802560",
    "MEAN_MOTION": 15.06385149,
    "ECCENTRICITY": 0.0001689,
    "INCLINATION": 53.0558,
    "RA_OF_ASC_NODE": 315.0606,
    "ARG_OF_PERICENTER": 110.277,
    "MEAN_ANOMALY": 249.84,
    "EPHEMERIS_TYPE": 0,
    "CLASSIFICATION_TYPE": "U",
    "NORAD_CAT_ID": 48008,
    "ELEMENT_SET_NO": 999,
    "REV_AT_EPOCH": 17620,
    "BSTAR": 0.00017378,
    "MEAN_MOTION_DOT": 2.307e-5,
    "MEAN_MOTION_DDOT": 0
  },
  {
    "OBJECT_NAME": "STARLINK-2153",
    "OBJECT_ID": "2021-024AJ",
    "EPOCH": "2024-05-20T20:16:46.261632",
    "MEAN_MOTION": 15.0638391,
    "ECCENTRICITY": 0.0001592,
    "INCLINATION": 53.0553,
    "RA_OF_ASC_NODE": 29.792,
    "ARG_OF_PERICENTER": 96.4337,
    "MEAN_ANOMALY": 263.6834,
    "EPHEMERIS_TYPE": 0,
    "CLASSIFICATION_TYPE": "U",
    "NORAD_CAT_ID": 48009,
    "ELEMENT_SET_NO": 999,
    "REV_AT_EPOCH": 17516,
    "BSTAR": -2.8216e-5,
    "MEAN_MOTION_DOT": -7.02e-6,
    "MEAN_MOTION_DDOT": 0
  },
  {
    "OBJECT_NAME": "STARLINK-2226",
    "OBJECT_ID": "2021-024AK",
    "EPOCH": "2024-05-20T17:24:15.593472",
    "MEAN_MOTION": 15.06378018,
    "ECCENTRICITY": 0.000136,
    "INCLINATION": 53.0534,
    "RA_OF_ASC_NODE": 50.328,
    "ARG_OF_PERICENTER": 132.1794,
    "MEAN_ANOMALY": 227.931,
    "EPHEMERIS_TYPE": 0,
    "CLASSIFICATION_TYPE": "U",
    "NORAD_CAT_ID": 48010,
    "ELEMENT_SET_NO": 999,
    "REV_AT_EPOCH": 17485,
    "BSTAR": -0.00012077,
    "MEAN_MOTION_DOT": -2.079e-5,
    "MEAN_MOTION_DDOT": 0
  }
]